CCSDS_OMM_VERS = 2.0
CREATION_DATE  = 
ORIGINATOR     = 

OBJECT_NAME    = SZ-21 DEB
OBJECT_ID      = 2025-246C
CENTER_NAME    = EARTH
REF_FRAME      = TEME
TIME_SYSTEM    = UTC
MEAN_ELEMENT_THEORY = SGP/SGP4

EPOCH          = 2025-11-17T14:20:42.097344
MEAN_MOTION    = 15.60861930
ECCENTRICITY   = .0004715
INCLINATION    = 41.4750
RA_OF_ASC_NODE = 169.2241
ARG_OF_PERICENTER = 73.1508
MEAN_ANOMALY   = 286.9848

EPHEMERIS_TYPE = 0
CLASSIFICATION_TYPE = U
NORAD_CAT_ID   = 66515
ELEMENT_SET_NO = 999
REV_AT_EPOCH   = 51
BSTAR          = .36346E-3
MEAN_MOTION_DOT = .31042E-3
MEAN_MOTION_DDOT = 0

